[{"OBJECT_NAME":"SJ-11-06","OBJECT_ID":"2014-014A","EPOCH":"2026-03-09T23:36:53.923680","MEAN_MOTION":14.61777646,"ECCENTRICITY":0.00126361,"INCLINATION":97.9599,"RA_OF_ASC_NODE":99.4808,"ARG_OF_PERICENTER":301.1982,"MEAN_ANOMALY":58.7981,"EPHEMERIS_TYPE":0,"CLASSIFICATION_TYPE":"U","NORAD_CAT_ID":39624,"ELEMENT_SET_NO":999,"REV_AT_EPOCH":63620,"BSTAR":0.00014245201,"MEAN_MOTION_DOT":6.66e-6,"MEAN_MOTION_DDOT":0},{"OBJECT_NAME":"TITAN 3C TRANSTAGE DEB","OBJECT_ID":"1965-082AT","EPOCH":"2026-03-09T02:37:14.904192","MEAN_MOTION":14.65653944,"ECCENTRICITY":0.00202638,"INCLINATION":32.2566,"RA_OF_ASC_NODE":39.5235,"ARG_OF_PERICENTER":47.9837,"MEAN_ANOMALY":312.2534,"EPHEMERIS_TYPE":0,"CLASSIFICATION_TYPE":"U","NORAD_CAT_ID":1680,"ELEMENT_SET_NO":999,"REV_AT_EPOCH":19896,"BSTAR":0.00011967726,"MEAN_MOTION_DOT":6.99e-6,"MEAN_MOTION_DDOT":0}]
